{"fetched_at":"2026-04-09T05:50:40Z","count":8110,"tles":[{"name":"STARLINK-37262","line1":"1 68508U 26068A   26097.18701930 -.00687094  00000+0 -23435-2 0  9996","line2":"2 68508  53.1615   6.6001 0000210  95.0432 265.0619 15.90564350  1175","category":"Starlink"}]}