{
  "norad_id": 68508,
  "name": "STARLINK-37262",
  "history": [
    {
      "epoch": "2026-04-07T04:29:18.466656Z",
      "apogee_km": 300.84283303151096,
      "perigee_km": 300.56232176925914,
      "latitude_deg": 1.120831494846097e-05,
      "longitude_deg": 103.8056427465338,
      "height_km": 301.6379246317881,
      "semi_major_axis_km": 6678.839577400385,
      "eccentricity": 2.1e-05,
      "inclination_deg": 53.1615,
      "raan_deg": 6.6001,
      "arg_perigee_deg": 95.0432,
      "mean_anomaly_deg": 265.0619,
      "mean_motion_rev_day": 15.90564349
    }
  ]
}